{
  "type": "FeatureCollection",
  "features": [
    {
      "type": "Feature",
      "properties": {
        "norad_id": 42988,
        "name": "SKYSAT-C10",
        "group": "resource",
        "lat": -48.966832791049235,
        "lon": -71.97919582500313,
        "alt_km": 478.686744325727,
        "timestamp": "2025-12-11T18:59:45.723871+00:00",
        "meta_object_name": "SKYSAT-C10",
        "meta_object_id": "2017-068B",
        "meta_epoch": "2025-12-11T07:01:30.085248",
        "meta_mean_motion": 15.32015001,
        "meta_eccentricity": 0.00053344,
        "meta_inclination": 97.4256,
        "meta_ra_of_asc_node": 116.1396,
        "meta_arg_of_pericenter": 107.668,
        "meta_mean_anomaly": 252.5145,
        "meta_ephemeris_type": 0,
        "meta_classification_type": "U",
        "meta_norad_cat_id": 42988,
        "meta_element_set_no": 999,
        "meta_rev_at_epoch": 45357,
        "meta_bstar": 0.00061628253,
        "meta_mean_motion_dot": 0.00019005,
        "meta_mean_motion_ddot": 0,
        "tle_line1": "1 42988U 17068B   25345.29270932  .00019005  00000+0  61628-3 0  9996",
        "tle_line2": "2 42988  97.4256 116.1396 0005334 107.6680 252.5145 15.32015001453572"
      },
      "geometry": {
        "type": "Point",
        "coordinates": [
          -71.97919582500313,
          -48.966832791049235
        ]
      }
    },
    {
      "type": "Feature",
      "properties": {
        "norad_id": 42989,
        "name": "SKYSAT-C9",
        "group": "resource",
        "lat": 62.28371553093713,
        "lon": 101.67734574624343,
        "alt_km": 445.4232941049413,
        "timestamp": "2025-12-11T18:59:45.723881+00:00",
        "meta_object_name": "SKYSAT-C9",
        "meta_object_id": "2017-068C",
        "meta_epoch": "2025-12-10T19:16:09.008256",
        "meta_mean_motion": 15.35967716,
        "meta_eccentricity": 0.0010648,
        "meta_inclination": 97.4187,
        "meta_ra_of_asc_node": 115.0414,
        "meta_arg_of_pericenter": 93.9134,
        "meta_mean_anomaly": 266.3328,
        "meta_ephemeris_type": 0,
        "meta_classification_type": "U",
        "meta_norad_cat_id": 42989,
        "meta_element_set_no": 999,
        "meta_rev_at_epoch": 45378,
        "meta_bstar": 0.00053472,
        "meta_mean_motion_dot": 0.00018699,
        "meta_mean_motion_ddot": 0,
        "tle_line1": "1 42989U 17068C   25344.80288204  .00018699  00000+0  53472-3 0  9990",
        "tle_line2": "2 42989  97.4187 115.0414 0010648  93.9134 266.3328 15.35967716453781"
      },
      "geometry": {
        "type": "Point",
        "coordinates": [
          101.67734574624343,
          62.28371553093713
        ]
      }
    },
    {
      "type": "Feature",
      "properties": {
        "norad_id": 42990,
        "name": "SKYSAT-C8",
        "group": "resource",
        "lat": 44.29822272166074,
        "lon": 108.47358484042722,
        "alt_km": 462.77483232638133,
        "timestamp": "2025-12-11T18:59:45.723892+00:00",
        "meta_object_name": "SKYSAT-C8",
        "meta_object_id": "2017-068D",
        "meta_epoch": "2025-12-11T06:16:04.437408",
        "meta_mean_motion": 15.32870124,
        "meta_eccentricity": 0.0001682,
        "meta_inclination": 97.4279,
        "meta_ra_of_asc_node": 115.2551,
        "meta_arg_of_pericenter": 356.1506,
        "meta_mean_anomaly": 3.9723,
        "meta_ephemeris_type": 0,
        "meta_classification_type": "U",
        "meta_norad_cat_id": 42990,
        "meta_element_set_no": 999,
        "meta_rev_at_epoch": 45348,
        "meta_bstar": 0.00064951299,
        "meta_mean_motion_dot": 0.00020574,
        "meta_mean_motion_ddot": 0,
        "tle_line1": "1 42990U 17068D   25345.26116247  .00020574  00000+0  64951-3 0  9999",
        "tle_line2": "2 42990  97.4279 115.2551 0001682 356.1506   3.9723 15.32870124453488"
      },
      "geometry": {
        "type": "Point",
        "coordinates": [
          108.47358484042722,
          44.29822272166074
        ]
      }
    },
    {
      "type": "Feature",
      "properties": {
        "norad_id": 42991,
        "name": "SKYSAT-C7",
        "group": "resource",
        "lat": -79.29766731018996,
        "lon": -106.83051836165079,
        "alt_km": 481.19639124996866,
        "timestamp": "2025-12-11T18:59:45.723902+00:00",
        "meta_object_name": "SKYSAT-C7",
        "meta_object_id": "2017-068E",
        "meta_epoch": "2025-12-11T06:53:02.056704",
        "meta_mean_motion": 15.32277606,
        "meta_eccentricity": 0.00077144,
        "meta_inclination": 97.4286,
        "meta_ra_of_asc_node": 116.323,
        "meta_arg_of_pericenter": 61.429,
        "meta_mean_anomaly": 298.7727,
        "meta_ephemeris_type": 0,
        "meta_classification_type": "U",
        "meta_norad_cat_id": 42991,
        "meta_element_set_no": 999,
        "meta_rev_at_epoch": 45355,
        "meta_bstar": 0.0006281396,
        "meta_mean_motion_dot": 0.00019542,
        "meta_mean_motion_ddot": 0,
        "tle_line1": "1 42991U 17068E   25345.28682936  .00019542  00000+0  62814-3 0  9994",
        "tle_line2": "2 42991  97.4286 116.3230 0007714  61.4290 298.7727 15.32277606453553"
      },
      "geometry": {
        "type": "Point",
        "coordinates": [
          -106.83051836165079,
          -79.29766731018996
        ]
      }
    },
    {
      "type": "Feature",
      "properties": {
        "norad_id": 42992,
        "name": "SKYSAT-C6",
        "group": "resource",
        "lat": 21.692943216764515,
        "lon": 114.29191859055393,
        "alt_km": 469.70995695066904,
        "timestamp": "2025-12-11T18:59:45.723912+00:00",
        "meta_object_name": "SKYSAT-C6",
        "meta_object_id": "2017-068F",
        "meta_epoch": "2025-12-10T19:22:41.837088",
        "meta_mean_motion": 15.3142184,
        "meta_eccentricity": 0.00052036,
        "meta_inclination": 97.432,
        "meta_ra_of_asc_node": 116.2821,
        "meta_arg_of_pericenter": 87.635,
        "meta_mean_anomaly": 272.5487,
        "meta_ephemeris_type": 0,
        "meta_classification_type": "U",
        "meta_norad_cat_id": 42992,
        "meta_element_set_no": 999,
        "meta_rev_at_epoch": 45346,
        "meta_bstar": 0.00052032995,
        "meta_mean_motion_dot": 0.00015733,
        "meta_mean_motion_ddot": 0,
        "tle_line1": "1 42992U 17068F   25344.80742867  .00015733  00000+0  52033-3 0  9992",
        "tle_line2": "2 42992  97.4320 116.2821 0005203  87.6350 272.5487 15.31421840453469"
      },
      "geometry": {
        "type": "Point",
        "coordinates": [
          114.29191859055393,
          21.692943216764515
        ]
      }
    },
    {
      "type": "Feature",
      "properties": {
        "norad_id": 43111,
        "name": "CARTOSAT-2F",
        "group": "resource",
        "lat": 9.71605319038348,
        "lon": -135.27539559368762,
        "alt_km": 509.2624583028746,
        "timestamp": "2025-12-11T18:59:45.723923+00:00",
        "meta_object_name": "CARTOSAT-2F",
        "meta_object_id": "2018-004A",
        "meta_epoch": "2025-12-11T07:11:04.914816",
        "meta_mean_motion": 15.19251334,
        "meta_eccentricity": 8.899e-05,
        "meta_inclination": 97.4315,
        "meta_ra_of_asc_node": 42.9598,
        "meta_arg_of_pericenter": 145.8177,
        "meta_mean_anomaly": 214.3115,
        "meta_ephemeris_type": 0,
        "meta_classification_type": "U",
        "meta_norad_cat_id": 43111,
        "meta_element_set_no": 999,
        "meta_rev_at_epoch": 43880,
        "meta_bstar": 0.00037908671,
        "meta_mean_motion_dot": 7.925e-05,
        "meta_mean_motion_ddot": 0,
        "tle_line1": "1 43111U 18004A   25345.29936244  .00007925  00000+0  37909-3 0  9994",
        "tle_line2": "2 43111  97.4315  42.9598 0000889 145.8177 214.3115 15.19251334438800"
      },
      "geometry": {
        "type": "Point",
        "coordinates": [
          -135.27539559368762,
          9.71605319038348
        ]
      }
    },
    {
      "type": "Feature",
      "properties": {
        "norad_id": 43259,
        "name": "GAOFEN-1 02",
        "group": "resource",
        "lat": 78.95921079415504,
        "lon": -3.147431578960346,
        "alt_km": 633.8307911831307,
        "timestamp": "2025-12-11T18:59:45.723934+00:00",
        "meta_object_name": "GAOFEN-1 02",
        "meta_object_id": "2018-031A",
        "meta_epoch": "2025-12-11T07:14:18.748032",
        "meta_mean_motion": 14.76474232,
        "meta_eccentricity": 0.00015237,
        "meta_inclination": 98.0804,
        "meta_ra_of_asc_node": 43.0903,
        "meta_arg_of_pericenter": 215.5647,
        "meta_mean_anomaly": 144.5462,
        "meta_ephemeris_type": 0,
        "meta_classification_type": "U",
        "meta_norad_cat_id": 43259,
        "meta_element_set_no": 999,
        "meta_rev_at_epoch": 41497,
        "meta_bstar": 0.00017568191,
        "meta_mean_motion_dot": 1.171e-05,
        "meta_mean_motion_ddot": 0,
        "tle_line1": "1 43259U 18031A   25345.30160588  .00001171  00000+0  17568-3 0  9995",
        "tle_line2": "2 43259  98.0804  43.0903 0001523 215.5647 144.5462 14.76474232414975"
      },
      "geometry": {
        "type": "Point",
        "coordinates": [
          -3.147431578960346,
          78.95921079415504
        ]
      }
    }
  ]
}